STARLINK-2479
1 28136C 21027AW  21325.14374575  .00003897  00000-0  26105-3 0  3250
2 28136  53.0559  17.5758 0001207  63.5241 200.1998 15.06405834    11
